DISKSAT C               
1 67219U 25305A   26015.44777379  .00006673  00000+0  46136-3 0  9996
2 67219  45.0014 172.3937 0001775  32.1474 327.9509 15.06412813  4262
DISKSAT B               
1 67220U 25305B   26014.78557857  .00005298  00000+0  37045-3 0  9992
2 67220  45.0013 175.9037 0001536  33.0449 327.0521 15.06332316  4163
DISKSAT D               
1 67221U 25305C   26015.84748710  .00005436  00000+0  37987-3 0  9990
2 67221  45.0016 170.3041 0001840  51.3120 308.7919 15.06312701  4329
DISKSAT A               
1 67222U 25305D   26015.78237647  .00006554  00000+0  45501-3 0  9999
2 67222  45.0019 170.6629 0001772  61.6039 298.5014 15.06279775  4308
ELECTRON KICK STAGE R/B 
1 67223U 25305E   26015.79161898  .00083499  10358-4  71545-3 0  9997
2 67223  44.9842 159.8036 0161647 305.5551  53.0364 15.54084922  4447
TJS-23                  
1 67226U 25306A   26015.02369838  .00000044  00000+0  00000+0 0  9998
2 67226   5.9360 298.2773 0000584  63.5446 296.6765  1.00270234   359
CZ-5 R/B                
1 67227U 25306B   26014.14624916  .00006763  00000+0  18958-2 0  9990
2 67227  16.2725 290.8683 7577903 194.1146 117.2677  1.92528837   498
QPS-SAR-15              
1 67228U 25307A   26015.31454768  .00003054  00000+0  27371-3 0  9998
2 67228  42.0083 346.4672 0007704  71.7855 288.3808 14.97370393  3755
ELECTRON R/B            
1 67229U 25307B   26015.89562777  .00933515  78172-5  14092-2 0  9992
2 67229  41.9920 327.0771 0132820  66.0457 295.4246 15.88994504  4025
ELECTRON KICK STAGE R/B 
1 67230U 25307C   26015.90789795  .10755121  83684-5  10894-2 0  9993
2 67230  41.9941 324.4880 0028479 106.7529 253.6473 16.35363426  2457
SPACEMOBILE-006         
1 67232U 25309A   26015.63923834 -.00000346  00000+0 -12034-5 0  9990
2 67232  52.9987 309.9129 0011996  31.1147 329.0554 15.17742258  3427
LVM3 R/B                
1 67233U 25309B   26015.61256250  .00004818  00000+0  23752-3 0  9993
2 67233  52.9288 309.5061 0011791  55.7932 304.4177 15.19682475  3424
2025-310A               
1 67234U 25310A   26014.72283539  .00000009  00000+0  86937-5 0  9991
2 67234  97.9664  24.2349 0001912 179.1290 180.9923 14.75705364  2995
SL-4 R/B                
1 67235U 25310B   26015.64665152  .00265867  24277-5  52542-3 0  9995
2 67235  97.9619  27.5118 0265300   0.3523 359.7870 15.59723108  3271
HULIANWANG DIGUI-128    
1 67236U 25311A   26015.63446950 -.00000045  00000+0  81614-4 0  9990
2 67236  50.0101 313.4332 0006567 346.4900  13.5822 13.90210717  2882
HULIANWANG DIGUI-129    
1 67237U 25311B   26015.63576530 -.00000051  00000+0  76372-4 0  9991
2 67237  50.0090 313.4372 0007815 348.0369  12.0343 13.90166973  2884
HULIANWANG DIGUI-130    
1 67238U 25311C   26015.64239403 -.00000042  00000+0  84076-4 0  9998
2 67238  50.0071 313.4663 0007766 325.4977  34.5417 13.90218602  2884
HULIANWANG DIGUI-131    
1 67239U 25311D   26015.64550628 -.00000046  00000+0  80418-4 0  9994
2 67239  50.0066 313.4811 0009377 332.8334  27.2073 13.90205630  2887
HULIANWANG DIGUI-132    
1 67240U 25311E   26015.63931270 -.00000053  00000+0  74510-4 0  9995
2 67240  50.0078 313.4522 0008465 339.4838  20.5719 13.90231481  2886
HULIANWANG DIGUI-133    
1 67241U 25311F   26015.42184621 -.00000039  00000+0  86446-4 0  9998
2 67241  50.0122 314.3128 0007586 342.9599  17.1044 13.90209467  2854
HULIANWANG DIGUI-134    
1 67242U 25311G   26015.63859553 -.00000043  00000+0  83320-4 0  9998
2 67242  50.0053 313.4415 0006701 332.6519  27.4026 13.90195582  2882
HULIANWANG DIGUI-135    
1 67243U 25311H   26015.42502829 -.00000047  00000+0  80002-4 0  9995
2 67243  50.0039 314.3073 0007920 334.4451  25.6055 13.90184520  2855
HULIANWANG DIGUI-136    
1 67244U 25311J   26015.63634515 -.00000045  00000+0  81176-4 0  9998
2 67244  50.0111 313.4448 0006845 341.4891  18.5758 13.90230435  2885
CZ-8A R/B               
1 67245U 25311K   26015.60804008 -.00000219  00000+0 -33074-4 0  9990
2 67245  50.0054 310.6056 0088954 153.2495 207.3041 14.12608664  2922
FENGYUN 4C              
1 67246U 25312A   26015.89350390 -.00000304  00000+0  00000+0 0  9995
2 67246   0.0744 237.3397 0002454  52.2287 280.5007  1.00270350   254
CZ-3B R/B               
1 67247U 25312B   26014.93691767  .00167779 -27852-6  51133-3 0  9994
2 67247  28.3826 326.6661 7206315 191.5174 132.7342  2.43934644   460
2025-313A               
1 67248U 25313A   26015.82260001  .00000981  00000+0  10279-3 0  9993
2 67248  97.5630  91.9410 0280571 106.1200 257.1084 14.66795326  2688
2025-313B               
1 67249U 25313B   26015.81275404  .00002372  00000+0  18432-3 0  9991
2 67249  97.5322  92.0220 0297787 110.3418 253.0052 14.73197310  2691
2025-313C               
1 67250U 25313C   26015.81004759  .00009565  00000+0  89489-3 0  9997
2 67250  97.6365  92.5740 0163006 120.3766 241.3678 14.84687226  2715
2025-313D               
1 67251U 25313D   26015.82460054  .00002052  00000+0  18196-3 0  9994
2 67251  97.5875  92.5763 0152385 112.9016 248.8369 14.88743755  2723
ZORKIY-2M-VPE           
1 67252U 25313E   26015.82857650  .00005460  00000+0  24426-3 0  9996
2 67252  97.4117  93.0152 0011194 154.2470 205.9325 15.21650483  2780
AIST-2T 1               
1 67253U 25313F   26015.77973539  .00036313  00000+0  36724-3 0  9991
2 67253  97.1037  93.1157 0010488 172.4656 187.6764 15.65157242  2830
AIST-2T 2               
1 67254U 25313G   26015.65283620  .00028963  00000+0  29732-3 0  9997
2 67254  97.1014  92.9882 0010350 178.1402 181.9898 15.64822233  2808
2025-313H               
1 67255U 25313H   26015.79556609  .00001387  00000+0  10061-3 0  9999
2 67255  97.3098  92.2341 0091250 133.3682 227.5192 15.02169170  2740
SITRO-AIS-57            
1 67256U 25313J   26015.71821695  .00005547  00000+0  26062-3 0  9992
2 67256  97.4109  92.8528 0016986 172.9982 187.1493 15.19883235  2763
SITRO-AIS-59            
1 67257U 25313K   26015.78362873  .00005265  00000+0  24738-3 0  9993
2 67257  97.4115  92.9195 0016712 174.8390 185.3021 15.19909160  2777
SITRO-AIS-58            
1 67258U 25313L   26015.78325705  .00005337  00000+0  25043-3 0  9997
2 67258  97.4111  92.9184 0016666 174.1238 186.0196 15.19951839  2775
2025-313M               
1 67259U 25313M   26015.78043901  .00007031  00000+0  32618-3 0  9992
2 67259  97.4154  92.9437 0015894 172.7058 187.4412 15.20242315  2770
SITRO-AIS-60            
1 67260U 25313N   26015.71592544  .00004325  00000+0  20314-3 0  9992
2 67260  97.4119  92.8579 0016057 174.5247 185.6166 15.20037950  2763
2025-313P               
1 67261U 25313P   26015.77905652  .00009713  00000+0  44674-3 0  9998
2 67261  97.4154  92.9458 0015673 173.0448 187.1008 15.20437923  2777
2025-313Q               
1 67262U 25313Q   26015.78033206  .00006174  00000+0  28700-3 0  9997
2 67262  97.4121  92.9249 0015740 174.9127 185.2271 15.20223919  2778
DCS-1                   
1 67263U 25313R   26015.78062311  .00005411  00000+0  25236-3 0  9991
2 67263  97.4134  92.9390 0015690 173.8170 186.3262 15.20171037  2775
2025-313S               
1 67264U 25313S   26015.78143036  .00003780  00000+0  17794-3 0  9993
2 67264  97.4203  92.9371 0015654 178.8815 181.2458 15.20047472  2779
SITRO-TD-4              
1 67265U 25313T   26015.78026169  .00005741  00000+0  26735-3 0  9995
2 67265  97.4113  92.9344 0015618 174.6732 185.4672 15.20197034  2776
SITRO-AIS-65            
1 67266U 25313U   26015.78019997  .00005050  00000+0  23551-3 0  9993
2 67266  97.4141  92.9404 0015560 173.3390 186.8055 15.20206065  2772
2025-313V               
1 67267U 25313V   26015.77974784  .00006400  00000+0  29713-3 0  9993
2 67267  97.4123  92.9282 0014739 178.9358 181.1911 15.20267152  2772
ZORKY-2M 7              
1 67268U 25313W   26015.84628713  .00004822  00000+0  22532-3 0  9998
2 67268  97.4123  92.9903 0015705 173.8670 186.2760 15.20159425  2780
2025-313X               
1 67269U 25313X   26015.77935190  .00007694  00000+0  35562-3 0  9998
2 67269  97.4149  92.9430 0015535 172.6531 187.4935 15.20345447  2775
SITRO-TD-3              
1 67270U 25313Y   26015.78055214  .00005696  00000+0  26543-3 0  9990
2 67270  97.4124  92.9361 0015657 174.3435 185.7979 15.20178478  2777
2025-313Z               
1 67271U 25313Z   26015.78135734  .00002836  00000+0  13439-3 0  9990
2 67271  97.4117  92.9254 0015681 170.2729 189.8812 15.20017470  2774
2025-313AA              
1 67272U 25313AA  26015.77889420  .00006561  00000+0  30362-3 0  9991
2 67272  97.4122  92.9272 0015402 174.6507 185.4896 15.20362974  2770
2025-313AB              
1 67273U 25313AB  26015.78123420  .00002029  00000+0  97181-4 0  9992
2 67273  97.4135  92.9287 0014592 178.6677 181.4600 15.20001235  2771
2025-313AC              
1 67274U 25313AC  26015.78003689  .00003841  00000+0  18012-3 0  9995
2 67274  97.4111  92.9333 0015357 173.6688 186.4744 15.20169189  2772
2025-313AD              
1 67275U 25313AD  26015.64774226  .00004051  00000+0  18952-3 0  9990
2 67275  97.4086  92.7992 0014571 176.9790 183.1536 15.20229409  2753
2025-313AE              
1 67276U 25313AE  26015.71353009  .00004235  00000+0  19800-3 0  9998
2 67276  97.4091  92.8646 0014514 176.8118 183.3213 15.20229409  2762
2025-313AF              
1 67277U 25313AF  26015.77958582  .00003755  00000+0  17608-3 0  9992
2 67277  97.4093  92.9296 0014513 176.3762 183.7581 15.20195162  2777
2025-313AG              
1 67278U 25313AG  26015.71359285  .00003820  00000+0  17901-3 0  9991
2 67278  97.4095  92.8659 0014471 176.5120 183.6219 15.20211507  2774
GALAPAGOS-UTE-SWSU      
1 67279U 25313AH  26015.77877410  .00004405  00000+0  20540-3 0  9996
2 67279  97.4106  92.9338 0015043 173.2982 186.8458 15.20288230  2776
2025-313AJ              
1 67280U 25313AJ  26015.77474017  .00003344  00000+0  15545-3 0  9994
2 67280  97.4176  92.9432 0013956 169.9114 190.2404 15.20581055  2771
